satname,norad_id,inclination_deg,eccentricity,mean_motion_rev_per_day,perigee_km,apogee_km,l1,l2
STARLINK-1493,45759,53.0565,0.0001993,15.06401767,545.8259214547961,548.586363231334,1 45759U 20038AF  25338.57914339 -.00004135  00000+0 -25879-3 0  9993,2 45759  53.0565 283.5812 0001993  81.6486 278.4729 15.06401767302135
STARLINK-1494,45760,53.0541,0.0005594,15.54575265,399.5939778522834,407.18114753302416,1 45760U 20038AG  25338.51681434  .00073896  00000+0  10960-2 0  9998,2 45760  53.0541 257.7397 0005594 111.2510 248.9097 15.54575265302500
STARLINK-1502,45764,53.0557,0.000146,15.06458255,546.0219456841469,548.044095330134,1 45764U 20038AL  25338.08154144  .00022967  00000+0  15533-2 0  9991,2 45764  53.0557 285.8192 0001460  88.8883 271.2274 15.06458255302070
STARLINK-1470,45772,53.0517,0.0006818,15.20264246,500.34994236613784,509.7358464701665,1 45772U 20038AU  25338.05442783  .00067088  00000+0  30377-2 0  9992,2 45772  53.0517 255.4431 0006818  48.6967 311.4615 15.20264246302496
STARLINK-1482,45773,53.054,0.0001328,15.06437984,546.1754740662673,548.0148157239528,1 45773U 20038AV  25338.17922274  .00028495  00000+0  19222-2 0  9999,2 45773  53.0540 265.3797 0001328  93.1530 266.9611 15.06437984302361
STARLINK-1496,45780,53.0549,0.0001255,15.06419283,546.2833351238642,548.0215827780612,1 45780U 20038BC  25338.21238801  .00033182  00000+0  22349-2 0  9991,2 45780  53.0549 265.2297 0001255  88.7629 271.3504 15.06419283302352
STARLINK-1497,45781,53.0374,0.0006772,15.64715876,369.4834344435194,378.62860466920574,1 45781U 20038BD  25338.75002315  .00098053  00000+0  98391-3 0  9999,2 45781  53.0374 195.2388 0006772  95.5966  43.5884 15.64715876  5969
STARLINK-1510,45784,53.0238,0.0002259,15.85906152,312.2627452227325,315.2861508149481,1 45784U 20038BG  25338.75002315  .00247793  00000+0  96458-3 0  9991,2 45784  53.0238 166.8247 0002259 205.3855 260.5751 15.85906152  5633
STARLINK-1513,45786,53.0559,0.0001598,15.06403038,546.0955777098188,548.3089161331354,1 45786U 20038BJ  25338.17553153  .00000496  00000+0  52207-4 0  9992,2 45786  53.0559 265.3986 0001598  90.4020 269.7152 15.06403038302362
STARLINK-1522,46027,53.0538,0.000144,15.0640144,546.2098949923757,548.2043941060056,1 46027U 20055A   25338.62062053  .00001369  00000+0  11081-3 0  9998,2 46027  53.0538 193.3986 0001440  90.4667 269.6487 15.06401440294557
STARLINK-1523,46028,53.0536,0.0001552,15.06400434,546.1354139013501,548.2850416808569,1 46028U 20055B   25338.63535529 -.00000239  00000+0  28380-5 0  9991,2 46028  53.0536 193.3369 0001552  88.7093 271.4074 15.06400434294575
STARLINK-1526,46029,53.055,0.0001579,15.06403451,546.1074702732822,548.2944920077261,1 46029U 20055C   25338.62798454  .00001394  00000+0  11244-3 0  9990,2 46029  53.0550 193.3668 0001579 100.2009 259.9158 15.06403451294565
STARLINK-1555,46032,53.0553,0.0001754,15.06420599,545.9337306258203,548.3631207531525,1 46032U 20055F   25338.34783476  .00002961  00000+0  21748-3 0  9992,2 46032  53.0553 194.6228 0001754  90.2407 269.8783 15.06420599294525
STARLINK-1556,46033,53.0549,0.0001693,15.06408006,546.014563453301,548.359478166748,1 46033U 20055G   25338.32942404  .00000020  00000+0  20222-4 0  9990,2 46033  53.0549 194.7056 0001693  87.9928 272.1255 15.06408006294490
STARLINK-1557,46034,53.0544,0.0001472,15.06403383,546.1817797684207,548.2205993314246,1 46034U 20055H   25337.93502705  .00000714  00000+0  66800-4 0  9995,2 46034  53.0544 196.4777 0001472  83.0407 277.0750 15.06403383294430
STARLINK-1558,46035,53.0539,0.0001475,15.06390371,546.2195763283826,548.262562858913,1 46035U 20055J   25338.60588102  .00001295  00000+0  10585-3 0  9999,2 46035  53.0539 193.4673 0001475  92.1180 267.9978 15.06390371294565
STARLINK-1560,46036,53.054,0.0001491,15.0640323,546.169090477194,548.2342264651497,1 46036U 20055K   25338.32574316  .00001552  00000+0  12308-3 0  9992,2 46036  53.0540 194.7267 0001491  88.4491 271.6669 15.06403230294526
STARLINK-1567,46038,53.0534,0.0001661,15.06405955,546.0430094171234,548.3436041450359,1 46038U 20055M   25338.60218336  .00002136  00000+0  16223-3 0  9991,2 46038  53.0534 193.4848 0001661  87.1981 272.9198 15.06405955294551
STARLINK-1569,46039,53.0542,0.0001443,15.06394266,546.2298015453443,548.2284622110055,1 46039U 20055N   25338.60955920  .00001416  00000+0  11393-3 0  9992,2 46039  53.0542 193.4504 0001443  91.2733 268.8421 15.06394266294554
STARLINK-1582,46043,53.0542,0.0001438,15.0640891,546.1883890103718,548.1801114019318,1 46043U 20055S   25337.88711110  .00001784  00000+0  13863-3 0  9999,2 46043  53.0542 196.6914 0001438  91.6526 268.4628 15.06408910294442
STARLINK-1591,46045,53.0541,0.0001392,15.06415048,546.2014362700866,548.1294404689288,1 46045U 20055U   25337.91290676  .00002372  00000+0  17800-3 0  9993,2 46045  53.0541 196.5753 0001392  83.1107 277.0040 15.06415048294436
STARLINK-1524,46047,53.0538,0.0001436,15.06403286,546.2070082331447,548.1959654465654,1 46047U 20055W   25338.59573138 -.00001549  00000+0 -85094-4 0  9995,2 46047  53.0538 183.5118 0001436 100.7738 259.3413 15.06403286294696
STARLINK-1527,46048,53.054,0.0001539,15.06407736,546.1220408197751,548.2536558080856,1 46048U 20055X   25337.86222602  .00000704  00000+0  66164-4 0  9999,2 46048  53.0540 186.8021 0001539  97.1143 263.0022 15.06407736294560
STARLINK-1540,46051,53.0532,0.0001142,15.06423388,546.3490113947018,547.9307446336406,1 46051U 20055AA  25337.89538273  .00002918  00000+0  21457-3 0  9994,2 46051  53.0532 186.6548 0001142  76.7869 283.3248 15.06423388294606
STARLINK-1541,46052,53.0536,0.000126,15.06406251,546.3198080854891,548.0649910941856,1 46052U 20055AB  25338.27873394  .00001327  00000+0  10795-3 0  9990,2 46052  53.0536 184.9319 0001260  89.9449 270.1684 15.06406251294629
STARLINK-1543,46053,53.0537,0.0001581,15.06410149,546.0855602003348,548.2753455789389,1 46053U 20055AC  25338.28242375  .00003049  00000+0  22345-3 0  9998,2 46053  53.0537 184.9153 0001581 104.9118 255.2046 15.06410149294654
STARLINK-1548,46054,53.054,0.0001416,15.06400796,546.228489303644,548.1897473243507,1 46054U 20055AD  25337.89172626  .00001515  00000+0  12055-3 0  9999,2 46054  53.0540 186.6710 0001416  90.7594 269.3557 15.06400796294597
STARLINK-1554,46055,53.0524,0.0001486,15.06420299,546.1202475745895,548.1784426763606,1 46055U 20055AE  25338.27505373  .00003456  00000+0  25064-3 0  9992,2 46055  53.0524 184.9506 0001486  90.6537 269.4622 15.06420299294658
